{
    "links": {
        "self": "http://www.neowsapp.com/rest/v1/neo/54076353?api_key=iIulBulltgU6a56xZRHN4H3l9WmuAYTsLGpBGhQ2"
    },
    "id": "54076353",
    "neo_reference_id": "54076353",
    "name": "(2020 UV4)",
    "designation": "2020 UV4",
    "nasa_jpl_url": "http://ssd.jpl.nasa.gov/sbdb.cgi?sstr=54076353",
    "absolute_magnitude_h": 25.639,
    "estimated_diameter": {
        "kilometers": {
            "estimated_diameter_min": 0.0198040939,
            "estimated_diameter_max": 0.0442833002
        },
        "meters": {
            "estimated_diameter_min": 19.804093889,
            "estimated_diameter_max": 44.2833001687
        },
        "miles": {
            "estimated_diameter_min": 0.0123056896,
            "estimated_diameter_max": 0.0275163585
        },
        "feet": {
            "estimated_diameter_min": 64.9740633949,
            "estimated_diameter_max": 145.2864225254
        }
    },
    "is_potentially_hazardous_asteroid": false,
    "close_approach_data": [
        {
            "close_approach_date": "2020-09-09",
            "close_approach_date_full": "2020-Sep-09 13:41",
            "epoch_date_close_approach": 1599658860000,
            "relative_velocity": {
                "kilometers_per_second": "14.3127803804",
                "kilometers_per_hour": "51526.0093694602",
                "miles_per_hour": "32016.2584329293"
            },
            "miss_distance": {
                "astronomical": "0.0674127082",
                "lunar": "26.2235434898",
                "kilometers": "10084797.557651534",
                "miles": "6266402.6253738092"
            },
            "orbiting_body": "Mars"
        },
        {
            "close_approach_date": "2020-10-26",
            "close_approach_date_full": "2020-Oct-26 23:38",
            "epoch_date_close_approach": 1603755480000,
            "relative_velocity": {
                "kilometers_per_second": "13.8387687962",
                "kilometers_per_hour": "49819.5676662595",
                "miles_per_hour": "30955.9419201822"
            },
            "miss_distance": {
                "astronomical": "0.0436403481",
                "lunar": "16.9760954109",
                "kilometers": "6528503.121818547",
                "miles": "4056623.7317560686"
            },
            "orbiting_body": "Earth"
        }
    ],
    "orbital_data": {
        "orbit_id": "2",
        "orbit_determination_date": "2020-11-02 05:01:13",
        "first_observation_date": "2020-10-22",
        "last_observation_date": "2020-10-24",
        "data_arc_in_days": 2,
        "observations_used": 21,
        "orbit_uncertainty": "8",
        "minimum_orbit_intersection": ".0430217",
        "jupiter_tisserand_invariant": "4.082",
        "epoch_osculation": "2459145.5",
        "eccentricity": ".5199546301749157",
        "semi_major_axis": "1.663195426872014",
        "inclination": "9.22776386772504",
        "ascending_node_longitude": "19.98735661912135",
        "orbital_period": "783.4537256529301",
        "perihelion_distance": ".7984092637841651",
        "perihelion_argument": "81.53888020375096",
        "aphelion_distance": "2.527981589959864",
        "perihelion_time": "2459196.097109127200",
        "mean_anomaly": "336.7504337660636",
        "mean_motion": ".4595038458716577",
        "equinox": "J2000",
        "orbit_class": {
            "orbit_class_type": "APO",
            "orbit_class_description": "Near-Earth asteroid orbits which cross the Earth’s orbit similar to that of 1862 Apollo",
            "orbit_class_range": "a (semi-major axis) > 1.0 AU; q (perihelion) < 1.017 AU"
        }
    },
    "is_sentry_object": false
}